{
  "type": "FeatureCollection",
  "features": [
    {
      "type": "Feature",
      "properties": {
        "norad_id": 34079,
        "name": "IRIDIUM 33 DEB",
        "group": "iridium-33-debris",
        "lat": 25.744158148343356,
        "lon": -171.66981398233398,
        "alt_km": 620.9988172448402,
        "timestamp": "2025-12-09T14:52:26.547497+00:00",
        "meta_object_name": "IRIDIUM 33 DEB",
        "meta_object_id": "1997-051CN",
        "meta_epoch": "2025-12-09T03:09:08.419680",
        "meta_mean_motion": 14.83376544,
        "meta_eccentricity": 0.0006064,
        "meta_inclination": 86.3775,
        "meta_ra_of_asc_node": 10.3028,
        "meta_arg_of_pericenter": 19.2898,
        "meta_mean_anomaly": 48.3139,
        "meta_ephemeris_type": 0,
        "meta_classification_type": "U",
        "meta_norad_cat_id": 34079,
        "meta_element_set_no": 999,
        "meta_rev_at_epoch": 88924,
        "meta_bstar": 0.0018399055,
        "meta_mean_motion_dot": 0.0001513,
        "meta_mean_motion_ddot": 0,
        "tle_line1": "1 34079U 97051CN  25343.13134745  .00015130  00000+0  18399-2 0  9991",
        "tle_line2": "2 34079  86.3775  10.3028 0006064  19.2898  48.3139 14.83376544889242"
      },
      "geometry": {
        "type": "Point",
        "coordinates": [
          -171.66981398233398,
          25.744158148343356
        ]
      }
    },
    {
      "type": "Feature",
      "properties": {
        "norad_id": 34088,
        "name": "IRIDIUM 33 DEB",
        "group": "iridium-33-debris",
        "lat": 22.03318495154504,
        "lon": -149.30905464212057,
        "alt_km": 591.0037147682551,
        "timestamp": "2025-12-09T14:52:26.547508+00:00",
        "meta_object_name": "IRIDIUM 33 DEB",
        "meta_object_id": "1997-051CX",
        "meta_epoch": "2025-12-09T04:49:13.085760",
        "meta_mean_motion": 14.91110401,
        "meta_eccentricity": 0.00054381,
        "meta_inclination": 86.3845,
        "meta_ra_of_asc_node": 32.3496,
        "meta_arg_of_pericenter": 189.6496,
        "meta_mean_anomaly": 240.9859,
        "meta_ephemeris_type": 0,
        "meta_classification_type": "U",
        "meta_norad_cat_id": 34088,
        "meta_element_set_no": 999,
        "meta_rev_at_epoch": 88689,
        "meta_bstar": 0.0029798605,
        "meta_mean_motion_dot": 0.00029654,
        "meta_mean_motion_ddot": 0,
        "tle_line1": "1 34088U 97051CX  25343.20084590  .00029654  00000+0  29799-2 0  9993",
        "tle_line2": "2 34088  86.3845  32.3496 0005438 189.6496 240.9859 14.91110401886897"
      },
      "geometry": {
        "type": "Point",
        "coordinates": [
          -149.30905464212057,
          22.03318495154504
        ]
      }
    },
    {
      "type": "Feature",
      "properties": {
        "norad_id": 34091,
        "name": "IRIDIUM 33 DEB",
        "group": "iridium-33-debris",
        "lat": 86.0173833922069,
        "lon": -178.5261789494969,
        "alt_km": 636.8728089596325,
        "timestamp": "2025-12-09T14:52:26.547519+00:00",
        "meta_object_name": "IRIDIUM 33 DEB",
        "meta_object_id": "1997-051DA",
        "meta_epoch": "2025-12-09T06:21:21.737952",
        "meta_mean_motion": 14.81387494,
        "meta_eccentricity": 0.00332386,
        "meta_inclination": 86.3413,
        "meta_ra_of_asc_node": 68.4246,
        "meta_arg_of_pericenter": 305.7588,
        "meta_mean_anomaly": 54.0544,
        "meta_ephemeris_type": 0,
        "meta_classification_type": "U",
        "meta_norad_cat_id": 34091,
        "meta_element_set_no": 999,
        "meta_rev_at_epoch": 87815,
        "meta_bstar": 0.0066530673,
        "meta_mean_motion_dot": 0.00052856,
        "meta_mean_motion_ddot": 0,
        "tle_line1": "1 34091U 97051DA  25343.26483493  .00052856  00000+0  66531-2 0  9993",
        "tle_line2": "2 34091  86.3413  68.4246 0033238 305.7588  54.0544 14.81387494878159"
      },
      "geometry": {
        "type": "Point",
        "coordinates": [
          -178.5261789494969,
          86.0173833922069
        ]
      }
    },
    {
      "type": "Feature",
      "properties": {
        "norad_id": 34097,
        "name": "IRIDIUM 33 DEB",
        "group": "iridium-33-debris",
        "lat": 33.77065170024898,
        "lon": -179.76258235542545,
        "alt_km": 814.668302684252,
        "timestamp": "2025-12-09T14:52:26.547529+00:00",
        "meta_object_name": "IRIDIUM 33 DEB",
        "meta_object_id": "1997-051DG",
        "meta_epoch": "2025-12-09T02:28:58.444608",
        "meta_mean_motion": 14.34730397,
        "meta_eccentricity": 0.00830075,
        "meta_inclination": 86.2001,
        "meta_ra_of_asc_node": 3.0124,
        "meta_arg_of_pericenter": 14.0258,
        "meta_mean_anomaly": 346.3214,
        "meta_ephemeris_type": 0,
        "meta_classification_type": "U",
        "meta_norad_cat_id": 34097,
        "meta_element_set_no": 999,
        "meta_rev_at_epoch": 87067,
        "meta_bstar": 0.0016398077,
        "meta_mean_motion_dot": 4.847e-05,
        "meta_mean_motion_ddot": 0,
        "tle_line1": "1 34097U 97051DG  25343.10345422  .00004847  00000+0  16398-2 0  9994",
        "tle_line2": "2 34097  86.2001   3.0124 0083007  14.0258 346.3214 14.34730397870672"
      },
      "geometry": {
        "type": "Point",
        "coordinates": [
          -179.76258235542545,
          33.77065170024898
        ]
      }
    },
    {
      "type": "Feature",
      "properties": {
        "norad_id": 34145,
        "name": "IRIDIUM 33 DEB",
        "group": "iridium-33-debris",
        "lat": -30.139128316360832,
        "lon": -28.289028774232026,
        "alt_km": 784.3348453295521,
        "timestamp": "2025-12-09T14:52:26.547540+00:00",
        "meta_object_name": "IRIDIUM 33 DEB",
        "meta_object_id": "1997-051DY",
        "meta_epoch": "2025-12-07T23:03:04.751424",
        "meta_mean_motion": 14.42235871,
        "meta_eccentricity": 0.0055559,
        "meta_inclination": 86.2113,
        "meta_ra_of_asc_node": 334.6546,
        "meta_arg_of_pericenter": 109.0134,
        "meta_mean_anomaly": 251.7097,
        "meta_ephemeris_type": 0,
        "meta_classification_type": "U",
        "meta_norad_cat_id": 34145,
        "meta_element_set_no": 999,
        "meta_rev_at_epoch": 87569,
        "meta_bstar": 0.0013920574,
        "meta_mean_motion_dot": 4.693e-05,
        "meta_mean_motion_ddot": 0,
        "tle_line1": "1 34145U 97051DY  25341.96047166  .00004693  00000+0  13921-2 0  9992",
        "tle_line2": "2 34145  86.2113 334.6546 0055559 109.0134 251.7097 14.42235871875691"
      },
      "geometry": {
        "type": "Point",
        "coordinates": [
          -28.289028774232026,
          -30.139128316360832
        ]
      }
    },
    {
      "type": "Feature",
      "properties": {
        "norad_id": 34146,
        "name": "IRIDIUM 33 DEB",
        "group": "iridium-33-debris",
        "lat": -71.96265822153534,
        "lon": -177.30793595046345,
        "alt_km": 719.3562685351817,
        "timestamp": "2025-12-09T14:52:26.547550+00:00",
        "meta_object_name": "IRIDIUM 33 DEB",
        "meta_object_id": "1997-051DZ",
        "meta_epoch": "2025-12-09T07:09:24.931008",
        "meta_mean_motion": 14.49011204,
        "meta_eccentricity": 0.00252204,
        "meta_inclination": 86.2836,
        "meta_ra_of_asc_node": 351.3206,
        "meta_arg_of_pericenter": 233.8542,
        "meta_mean_anomaly": 142.0902,
        "meta_ephemeris_type": 0,
        "meta_classification_type": "U",
        "meta_norad_cat_id": 34146,
        "meta_element_set_no": 999,
        "meta_rev_at_epoch": 88057,
        "meta_bstar": 0.0014073518,
        "meta_mean_motion_dot": 5.378e-05,
        "meta_mean_motion_ddot": 0,
        "tle_line1": "1 34146U 97051DZ  25343.29820522  .00005378  00000+0  14074-2 0  9997",
        "tle_line2": "2 34146  86.2836 351.3206 0025220 233.8542 142.0902 14.49011204880573"
      },
      "geometry": {
        "type": "Point",
        "coordinates": [
          -177.30793595046345,
          -71.96265822153534
        ]
      }
    },
    {
      "type": "Feature",
      "properties": {
        "norad_id": 34159,
        "name": "IRIDIUM 33 DEB",
        "group": "iridium-33-debris",
        "lat": 84.17254111228742,
        "lon": 88.26963723076047,
        "alt_km": 771.5707321167101,
        "timestamp": "2025-12-09T14:52:26.547561+00:00",
        "meta_object_name": "IRIDIUM 33 DEB",
        "meta_object_id": "1997-051EN",
        "meta_epoch": "2025-12-09T06:07:49.463040",
        "meta_mean_motion": 14.38480706,
        "meta_eccentricity": 0.00260158,
        "meta_inclination": 86.3513,
        "meta_ra_of_asc_node": 49.7272,
        "meta_arg_of_pericenter": 300.13,
        "meta_mean_anomaly": 59.7319,
        "meta_ephemeris_type": 0,
        "meta_classification_type": "U",
        "meta_norad_cat_id": 34159,
        "meta_element_set_no": 999,
        "meta_rev_at_epoch": 87909,
        "meta_bstar": 0.00066918614,
        "meta_mean_motion_dot": 2.069e-05,
        "meta_mean_motion_ddot": 0,
        "tle_line1": "1 34159U 97051EN  25343.25543360  .00002069  00000+0  66919-3 0  9999",
        "tle_line2": "2 34159  86.3513  49.7272 0026015 300.1300  59.7319 14.38480706879090"
      },
      "geometry": {
        "type": "Point",
        "coordinates": [
          88.26963723076047,
          84.17254111228742
        ]
      }
    }
  ]
}